{
  "norad_id": 66520,
  "name": "STARLINK-35952",
  "history": [
    {
      "epoch": "2026-03-28T14:27:29.463840Z",
      "apogee_km": 484.16499003832087,
      "perigee_km": 482.0091934286984,
      "latitude_deg": -5.37936942895936e-05,
      "longitude_deg": 128.4324642840583,
      "height_km": 482.9889938936819,
      "semi_major_axis_km": 6861.224091733509,
      "eccentricity": 0.0001571,
      "inclination_deg": 42.9983,
      "raan_deg": 171.3258,
      "arg_perigee_deg": 263.3262,
      "mean_anomaly_deg": 96.741,
      "mean_motion_rev_day": 15.27567311
    },
    {
      "epoch": "2026-03-29T21:50:37.092192Z",
      "apogee_km": 483.4819259074584,
      "perigee_km": 482.48294691751653,
      "latitude_deg": 2.7342724462889662e-05,
      "longitude_deg": 8.975311593532632,
      "height_km": 482.4965369956606,
      "semi_major_axis_km": 6861.119436412487,
      "eccentricity": 7.28e-05,
      "inclination_deg": 43.003,
      "raan_deg": 163.9393,
      "arg_perigee_deg": 301.6746,
      "mean_anomaly_deg": 58.4035,
      "mean_motion_rev_day": 15.27602262
    },
    {
      "epoch": "2026-03-30T05:41:24.311616Z",
      "apogee_km": 483.59841080320984,
      "perigee_km": 482.43242656117854,
      "latitude_deg": -4.245730634785526e-06,
      "longitude_deg": -110.88991161551442,
      "height_km": 482.3486679861234,
      "semi_major_axis_km": 6861.1524186821935,
      "eccentricity": 8.497e-05,
      "inclination_deg": 43.0005,
      "raan_deg": 162.0931,
      "arg_perigee_deg": 40.7447,
      "mean_anomaly_deg": 319.3468,
      "mean_motion_rev_day": 15.27591247
    },
    {
      "epoch": "2026-03-30T13:32:10.965120Z",
      "apogee_km": 483.5864038033924,
      "perigee_km": 482.4615850699638,
      "latitude_deg": -1.0233438884135133e-05,
      "longitude_deg": 129.24855698876905,
      "height_km": 482.59484359706937,
      "semi_major_axis_km": 6861.160994436677,
      "eccentricity": 8.197e-05,
      "inclination_deg": 43.0017,
      "raan_deg": 160.2482,
      "arg_perigee_deg": 291.4335,
      "mean_anomaly_deg": 68.6429,
      "mean_motion_rev_day": 15.27588383
    },
    {
      "epoch": "2026-03-30T21:22:57.996192Z",
      "apogee_km": 483.3454023081349,
      "perigee_km": 482.69853224070084,
      "latitude_deg": 3.216906157053388e-05,
      "longitude_deg": 9.383399686483092,
      "height_km": 482.6931378727993,
      "semi_major_axis_km": 6861.158967274418,
      "eccentricity": 4.714e-05,
      "inclination_deg": 43.0029,
      "raan_deg": 158.4012,
      "arg_perigee_deg": 288.946,
      "mean_anomaly_deg": 71.1341,
      "mean_motion_rev_day": 15.2758906
    }
  ]
}